{
    "links": {
        "self": "http://www.neowsapp.com/rest/v1/neo/3799249?api_key=iIulBulltgU6a56xZRHN4H3l9WmuAYTsLGpBGhQ2"
    },
    "id": "3799249",
    "neo_reference_id": "3799249",
    "name": "(2018 CB1)",
    "designation": "2018 CB1",
    "nasa_jpl_url": "http://ssd.jpl.nasa.gov/sbdb.cgi?sstr=3799249",
    "absolute_magnitude_h": 25.5,
    "estimated_diameter": {
        "kilometers": {
            "estimated_diameter_min": 0.0211132445,
            "estimated_diameter_max": 0.0472106499
        },
        "meters": {
            "estimated_diameter_min": 21.113244479,
            "estimated_diameter_max": 47.2106498806
        },
        "miles": {
            "estimated_diameter_min": 0.0131191578,
            "estimated_diameter_max": 0.0293353287
        },
        "feet": {
            "estimated_diameter_min": 69.2691770164,
            "estimated_diameter_max": 154.8905885541
        }
    },
    "is_potentially_hazardous_asteroid": false,
    "close_approach_data": [
        {
            "close_approach_date": "1972-01-20",
            "close_approach_date_full": "1972-Jan-20 16:59",
            "epoch_date_close_approach": 64774740000,
            "relative_velocity": {
                "kilometers_per_second": "23.6839203364",
                "kilometers_per_hour": "85262.1132109115",
                "miles_per_hour": "52978.5614004133"
            },
            "miss_distance": {
                "astronomical": "0.4304759539",
                "lunar": "167.4551460671",
                "kilometers": "64398285.789658193",
                "miles": "40015239.2583933434"
            },
            "orbiting_body": "Earth"
        },
        {
            "close_approach_date": "1974-06-24",
            "close_approach_date_full": "1974-Jun-24 21:02",
            "epoch_date_close_approach": 141339720000,
            "relative_velocity": {
                "kilometers_per_second": "19.7055135244",
                "kilometers_per_hour": "70939.8486878825",
                "miles_per_hour": "44079.2632027568"
            },
            "miss_distance": {
                "astronomical": "0.3054989278",
                "lunar": "118.8390829142",
                "kilometers": "45701988.886163786",
                "miles": "28397899.0657848068"
            },
            "orbiting_body": "Earth"
        },
        {
            "close_approach_date": "2018-02-15",
            "close_approach_date_full": "2018-Feb-15 04:29",
            "epoch_date_close_approach": 1518668940000,
            "relative_velocity": {
                "kilometers_per_second": "11.4012770068",
                "kilometers_per_hour": "41044.5972243313",
                "miles_per_hour": "25503.5165364185"
            },
            "miss_distance": {
                "astronomical": "0.0247544948",
                "lunar": "9.6294984772",
                "kilometers": "3703219.695006076",
                "miles": "2301074.0162568088"
            },
            "orbiting_body": "Earth"
        },
        {
            "close_approach_date": "2081-04-21",
            "close_approach_date_full": "2081-Apr-21 06:33",
            "epoch_date_close_approach": 3512442780000,
            "relative_velocity": {
                "kilometers_per_second": "13.9615761984",
                "kilometers_per_hour": "50261.6743140982",
                "miles_per_hour": "31230.6497981128"
            },
            "miss_distance": {
                "astronomical": "0.0714282346",
                "lunar": "27.7855832594",
                "kilometers": "10685511.754020302",
                "miles": "6639669.1184000876"
            },
            "orbiting_body": "Mars"
        }
    ],
    "orbital_data": {
        "orbit_id": "5",
        "orbit_determination_date": "2018-02-15 06:21:38",
        "first_observation_date": "2018-02-05",
        "last_observation_date": "2018-02-14",
        "data_arc_in_days": 9,
        "observations_used": 36,
        "orbit_uncertainty": "8",
        "minimum_orbit_intersection": ".00861303",
        "jupiter_tisserand_invariant": "4.082",
        "epoch_osculation": "2458156.5",
        "eccentricity": ".4796987209905925",
        "semi_major_axis": "1.688118056673748",
        "inclination": "1.476948145183437",
        "ascending_node_longitude": "168.7008063869765",
        "orbital_period": "801.129362930721",
        "perihelion_distance": ".8783299840062263",
        "perihelion_argument": "29.05208400475446",
        "aphelion_distance": "2.497906129341269",
        "perihelion_time": "2458202.331304575402",
        "mean_anomaly": "339.4049869963741",
        "mean_motion": ".4493656288954817",
        "equinox": "J2000",
        "orbit_class": {
            "orbit_class_type": "APO",
            "orbit_class_description": "Near-Earth asteroid orbits which cross the Earth’s orbit similar to that of 1862 Apollo",
            "orbit_class_range": "a (semi-major axis) > 1.0 AU; q (perihelion) < 1.017 AU"
        }
    },
    "is_sentry_object": false
}